{
  "type": "FeatureCollection",
  "features": [
    {
      "type": "Feature",
      "properties": {
        "norad_id": 66589,
        "name": "STARLINK-35447",
        "group": "last-30-days",
        "lat": -12.637051078607993,
        "lon": -130.20087118320964,
        "alt_km": 345.6082178851166,
        "timestamp": "2025-12-04T03:47:53.336978+00:00",
        "meta_object_name": "STARLINK-35447",
        "meta_object_id": "2025-270B",
        "meta_epoch": "2025-12-03T08:00:01.999008",
        "meta_mean_motion": 15.77723151,
        "meta_eccentricity": 0.0001715,
        "meta_inclination": 42.9988,
        "meta_ra_of_asc_node": 248.7369,
        "meta_arg_of_pericenter": 264.208,
        "meta_mean_anomaly": 70.3484,
        "meta_ephemeris_type": 0,
        "meta_classification_type": "U",
        "meta_norad_cat_id": 66589,
        "meta_element_set_no": 999,
        "meta_rev_at_epoch": 299,
        "meta_bstar": -0.010389,
        "meta_mean_motion_dot": -0.01571882,
        "meta_mean_motion_ddot": 0,
        "tle_line1": "1 66589U 25270B   25337.33335647 -.01571882  00000+0 -10389-1 0  9999",
        "tle_line2": "2 66589  42.9988 248.7369 0001715 264.2080  70.3484 15.77723151  2996"
      },
      "geometry": {
        "type": "Point",
        "coordinates": [
          -130.20087118320964,
          -12.637051078607993
        ]
      }
    },
    {
      "type": "Feature",
      "properties": {
        "norad_id": 66590,
        "name": "STARLINK-35429",
        "group": "last-30-days",
        "lat": -13.902648323695866,
        "lon": -131.67800683537544,
        "alt_km": 345.55437308961245,
        "timestamp": "2025-12-04T03:47:53.336988+00:00",
        "meta_object_name": "STARLINK-35429",
        "meta_object_id": "2025-270C",
        "meta_epoch": "2025-12-03T08:00:01.999008",
        "meta_mean_motion": 15.77742488,
        "meta_eccentricity": 0.0001817,
        "meta_inclination": 42.9987,
        "meta_ra_of_asc_node": 248.7421,
        "meta_arg_of_pericenter": 266.4101,
        "meta_mean_anomaly": 66.1817,
        "meta_ephemeris_type": 0,
        "meta_classification_type": "U",
        "meta_norad_cat_id": 66590,
        "meta_element_set_no": 999,
        "meta_rev_at_epoch": 299,
        "meta_bstar": -0.010414,
        "meta_mean_motion_dot": -0.01576532,
        "meta_mean_motion_ddot": 0,
        "tle_line1": "1 66590U 25270C   25337.33335647 -.01576532  00000+0 -10414-1 0  9997",
        "tle_line2": "2 66590  42.9987 248.7421 0001817 266.4101  66.1817 15.77742488  2994"
      },
      "geometry": {
        "type": "Point",
        "coordinates": [
          -131.67800683537544,
          -13.902648323695866
        ]
      }
    },
    {
      "type": "Feature",
      "properties": {
        "norad_id": 66591,
        "name": "STARLINK-36058",
        "group": "last-30-days",
        "lat": -10.092213039059478,
        "lon": -127.29897724104757,
        "alt_km": 341.0887229228538,
        "timestamp": "2025-12-04T03:47:53.336999+00:00",
        "meta_object_name": "STARLINK-36058",
        "meta_object_id": "2025-270D",
        "meta_epoch": "2025-12-03T18:44:24.400608",
        "meta_mean_motion": 15.76720716,
        "meta_eccentricity": 0.0005641,
        "meta_inclination": 42.9978,
        "meta_ra_of_asc_node": 246.01,
        "meta_arg_of_pericenter": 235.3743,
        "meta_mean_anomaly": 124.6595,
        "meta_ephemeris_type": 0,
        "meta_classification_type": "U",
        "meta_norad_cat_id": 66591,
        "meta_element_set_no": 999,
        "meta_rev_at_epoch": 294,
        "meta_bstar": 0.0019961,
        "meta_mean_motion_dot": 0.00343594,
        "meta_mean_motion_ddot": 0,
        "tle_line1": "1 66591U 25270D   25337.78083797  .00343594  00000+0  19961-2 0  9997",
        "tle_line2": "2 66591  42.9978 246.0100 0005641 235.3743 124.6595 15.76720716  2943"
      },
      "geometry": {
        "type": "Point",
        "coordinates": [
          -127.29897724104757,
          -10.092213039059478
        ]
      }
    },
    {
      "type": "Feature",
      "properties": {
        "norad_id": 66592,
        "name": "STARLINK-36066",
        "group": "last-30-days",
        "lat": -10.100244935243682,
        "lon": -127.30816706201865,
        "alt_km": 345.545323848879,
        "timestamp": "2025-12-04T03:47:53.337008+00:00",
        "meta_object_name": "STARLINK-36066",
        "meta_object_id": "2025-270E",
        "meta_epoch": "2025-12-03T08:00:01.999008",
        "meta_mean_motion": 15.77664507,
        "meta_eccentricity": 0.0001877,
        "meta_inclination": 42.9989,
        "meta_ra_of_asc_node": 248.7271,
        "meta_arg_of_pericenter": 268.2079,
        "meta_mean_anomaly": 70.3939,
        "meta_ephemeris_type": 0,
        "meta_classification_type": "U",
        "meta_norad_cat_id": 66592,
        "meta_element_set_no": 999,
        "meta_rev_at_epoch": 279,
        "meta_bstar": -0.010569,
        "meta_mean_motion_dot": -0.015921,
        "meta_mean_motion_ddot": 0,
        "tle_line1": "1 66592U 25270E   25337.33335647 -.01592100  00000+0 -10569-1 0  9999",
        "tle_line2": "2 66592  42.9989 248.7271 0001877 268.2079  70.3939 15.77664507  2796"
      },
      "geometry": {
        "type": "Point",
        "coordinates": [
          -127.30816706201865,
          -10.100244935243682
        ]
      }
    },
    {
      "type": "Feature",
      "properties": {
        "norad_id": 66593,
        "name": "STARLINK-36031",
        "group": "last-30-days",
        "lat": -7.5646271510240775,
        "lon": -124.49042674613082,
        "alt_km": 341.2829600790301,
        "timestamp": "2025-12-04T03:47:53.337018+00:00",
        "meta_object_name": "STARLINK-36031",
        "meta_object_id": "2025-270F",
        "meta_epoch": "2025-12-03T18:43:24.870144",
        "meta_mean_motion": 15.76634833,
        "meta_eccentricity": 0.0005734,
        "meta_inclination": 42.9977,
        "meta_ra_of_asc_node": 246.004,
        "meta_arg_of_pericenter": 238.2252,
        "meta_mean_anomaly": 121.8059,
        "meta_ephemeris_type": 0,
        "meta_classification_type": "U",
        "meta_norad_cat_id": 66593,
        "meta_element_set_no": 999,
        "meta_rev_at_epoch": 294,
        "meta_bstar": 0.0015875,
        "meta_mean_motion_dot": 0.00269762,
        "meta_mean_motion_ddot": 0,
        "tle_line1": "1 66593U 25270F   25337.78014896  .00269762  00000+0  15875-2 0  9997",
        "tle_line2": "2 66593  42.9977 246.0040 0005734 238.2252 121.8059 15.76634833  2945"
      },
      "geometry": {
        "type": "Point",
        "coordinates": [
          -124.49042674613082,
          -7.5646271510240775
        ]
      }
    },
    {
      "type": "Feature",
      "properties": {
        "norad_id": 66594,
        "name": "STARLINK-36032",
        "group": "last-30-days",
        "lat": -7.560099859411658,
        "lon": -124.48524796794615,
        "alt_km": 345.8670400253786,
        "timestamp": "2025-12-04T03:47:53.337030+00:00",
        "meta_object_name": "STARLINK-36032",
        "meta_object_id": "2025-270G",
        "meta_epoch": "2025-12-03T08:00:01.999008",
        "meta_mean_motion": 15.77566251,
        "meta_eccentricity": 0.0001721,
        "meta_inclination": 42.9988,
        "meta_ra_of_asc_node": 248.7168,
        "meta_arg_of_pericenter": 266.4845,
        "meta_mean_anomaly": 76.2615,
        "meta_ephemeris_type": 0,
        "meta_classification_type": "U",
        "meta_norad_cat_id": 66594,
        "meta_element_set_no": 999,
        "meta_rev_at_epoch": 262,
        "meta_bstar": -0.010797,
        "meta_mean_motion_dot": -0.01647738,
        "meta_mean_motion_ddot": 0,
        "tle_line1": "1 66594U 25270G   25337.33335647 -.01647738  00000+0 -10797-1 0  9992",
        "tle_line2": "2 66594  42.9988 248.7168 0001721 266.4845  76.2615 15.77566251  2626"
      },
      "geometry": {
        "type": "Point",
        "coordinates": [
          -124.48524796794615,
          -7.560099859411658
        ]
      }
    },
    {
      "type": "Feature",
      "properties": {
        "norad_id": 66595,
        "name": "STARLINK-35711",
        "group": "last-30-days",
        "lat": -6.285871407237381,
        "lon": -123.09066883739519,
        "alt_km": 345.85136823433095,
        "timestamp": "2025-12-04T03:47:53.337041+00:00",
        "meta_object_name": "STARLINK-35711",
        "meta_object_id": "2025-270H",
        "meta_epoch": "2025-12-03T08:00:01.999008",
        "meta_mean_motion": 15.77519386,
        "meta_eccentricity": 0.0001794,
        "meta_inclination": 42.9989,
        "meta_ra_of_asc_node": 248.7112,
        "meta_arg_of_pericenter": 269.6847,
        "meta_mean_anomaly": 75.1247,
        "meta_ephemeris_type": 0,
        "meta_classification_type": "U",
        "meta_norad_cat_id": 66595,
        "meta_element_set_no": 999,
        "meta_rev_at_epoch": 299,
        "meta_bstar": -0.01092,
        "meta_mean_motion_dot": -0.01661351,
        "meta_mean_motion_ddot": 0,
        "tle_line1": "1 66595U 25270H   25337.33335647 -.01661351  00000+0 -10920-1 0  9998",
        "tle_line2": "2 66595  42.9989 248.7112 0001794 269.6847  75.1247 15.77519386  2990"
      },
      "geometry": {
        "type": "Point",
        "coordinates": [
          -123.09066883739519,
          -6.285871407237381
        ]
      }
    }
  ]
}